{"type": "FeatureCollection", "features": [ {"type": "Feature", "properties": {"norad_id": 64901, "name": "CO3D 4", "group": "resource", "lat": 55.3969197559919, "lon": -115.13441980380506, "alt_km": 500.2612842454855, "timestamp": "2025-12-03T10:52:57.107893+00:00", "meta": {"OBJECT_NAME": "CO3D 4", "OBJECT_ID": "2025-156C", "EPOCH": "2025-12-01T18:50:45.474720", "MEAN_MOTION": 15.20204195, "ECCENTRICITY": 0.00012108, "INCLINATION": 97.4354, "RA_OF_ASC_NODE": 52.3098, "ARG_OF_PERICENTER": 238.3057, "MEAN_ANOMALY": 121.806, "EPHEMERIS_TYPE": 0, "CLASSIFICATION_TYPE": "U", "NORAD_CAT_ID": 64901, "ELEMENT_SET_NO": 999, "REV_AT_EPOCH": 1954, "BSTAR": -1.4420799e-05, "MEAN_MOTION_DOT": -3.8e-06, "MEAN_MOTION_DDOT": 0}, "tle": {"line1": "1 64901U 25156C   25335.78524855 -.00000380  00000+0 -14421-4 0  9999", "line2": "2 64901  97.4354  52.3098 0001210 238.3057 121.8060 15.20204195 19549"}}, "geometry": {"type": "Point", "coordinates": [-115.13441980380506, 55.3969197559919]}}, {"type": "Feature", "properties": {"norad_id": 64902, "name": "CO3D 2", "group": "resource", "lat": -53.202738776870156, "lon": 63.907670948701174, "alt_km": 512.8796613037275, "timestamp": "2025-12-03T10:52:57.107904+00:00", "meta": {"OBJECT_NAME": "CO3D 2", "OBJECT_ID": "2025-156D", "EPOCH": "2025-12-03T04:48:00.616896", "MEAN_MOTION": 15.20214372, "ECCENTRICITY": 9.9e-05, "INCLINATION": 97.4353, "RA_OF_ASC_NODE": 53.6032, "ARG_OF_PERICENTER": 114.0205, "MEAN_ANOMALY": 246.1134, "EPHEMERIS_TYPE": 0, "CLASSIFICATION_TYPE": "U", "NORAD_CAT_ID": 64902, "ELEMENT_SET_NO": 999, "REV_AT_EPOCH": 1975, "BSTAR": 0.00039192, "MEAN_MOTION_DOT": 8.429e-05, "MEAN_MOTION_DDOT": 0}, "tle": {"line1": "1 64902U 25156D   25337.20000714  .00008429  00000+0  39192-3 0  9993", "line2": "2 64902  97.4353  53.6032 0000990 114.0205 246.1134 15.20214372 19754"}}, "geometry": {"type": "Point", "coordinates": [63.907670948701174, -53.202738776870156]}}, {"type": "Feature", "properties": {"norad_id": 64903, "name": "CO3D 1", "group": "resource", "lat": -54.00858351988881, "lon": 64.21129321512244, "alt_km": 512.9374433564681, "timestamp": "2025-12-03T10:52:57.107915+00:00", "meta": {"OBJECT_NAME": "CO3D 1", "OBJECT_ID": "2025-156E", "EPOCH": "2025-12-03T04:48:13.754016", "MEAN_MOTION": 15.20217772, "ECCENTRICITY": 0.0001042, "INCLINATION": 97.4353, "RA_OF_ASC_NODE": 53.6032, "ARG_OF_PERICENTER": 119.4886, "MEAN_ANOMALY": 240.6454, "EPHEMERIS_TYPE": 0, "CLASSIFICATION_TYPE": "U", "NORAD_CAT_ID": 64903, "ELEMENT_SET_NO": 999, "REV_AT_EPOCH": 1975, "BSTAR": 0.00039075, "MEAN_MOTION_DOT": 8.404e-05, "MEAN_MOTION_DDOT": 0}, "tle": {"line1": "1 64903U 25156E   25337.20015919  .00008404  00000+0  39075-3 0  9990", "line2": "2 64903  97.4353  53.6032 0001042 119.4886 240.6454 15.20217772 19759"}}, "geometry": {"type": "Point", "coordinates": [64.21129321512244, -54.00858351988881]}}, {"type": "Feature", "properties": {"norad_id": 66514, "name": "SENTINEL-6B", "group": "resource", "lat": 27.664652663536607, "lon": -164.7048972885475, "alt_km": 1320.4659834679578, "timestamp": "2025-12-03T10:52:57.107925+00:00", "meta": {"OBJECT_NAME": "SENTINEL-6B", "OBJECT_ID": "2025-264A", "EPOCH": "2025-12-03T01:23:27.973824", "MEAN_MOTION": 12.85877453, "ECCENTRICITY": 0.0011537, "INCLINATION": 66.0389, "RA_OF_ASC_NODE": 182.6439, "ARG_OF_PERICENTER": 268.7049, "MEAN_ANOMALY": 91.2647, "EPHEMERIS_TYPE": 0, "CLASSIFICATION_TYPE": "U", "NORAD_CAT_ID": 66514, "ELEMENT_SET_NO": 999, "REV_AT_EPOCH": 204, "BSTAR": 0.00030684, "MEAN_MOTION_DOT": 1.4e-07, "MEAN_MOTION_DDOT": 0}, "tle": {"line1": "1 66514U 25264A   25337.05796266  .00000014  00000+0  30684-3 0  9990", "line2": "2 66514  66.0389 182.6439 0011537 268.7049  91.2647 12.85877453  2047"}}, "geometry": {"type": "Point", "coordinates": [-164.7048972885475, 27.664652663536607]}}]}